{
  "type": "FeatureCollection",
  "features": [
    {
      "type": "Feature",
      "properties": {
        "norad_id": 44333,
        "name": "AT&T T-16",
        "group": "intelsat",
        "lat": 0.02769057214502936,
        "lon": 163.76386904760622,
        "alt_km": 35781.71456151682,
        "timestamp": "2025-12-22T11:33:20.097257+00:00",
        "meta_object_name": "AT&T T-16",
        "meta_object_id": "2019-034A",
        "meta_epoch": "2025-12-22T00:42:05.517792",
        "meta_mean_motion": 1.00271543,
        "meta_eccentricity": 0.00011,
        "meta_inclination": 0.0187,
        "meta_ra_of_asc_node": 60.003,
        "meta_arg_of_pericenter": 87.6404,
        "meta_mean_anomaly": 212.8681,
        "meta_ephemeris_type": 0,
        "meta_classification_type": "U",
        "meta_norad_cat_id": 44333,
        "meta_element_set_no": 999,
        "meta_rev_at_epoch": 2385,
        "meta_bstar": 0,
        "meta_mean_motion_dot": -9.3e-07,
        "meta_mean_motion_ddot": 0,
        "tle_line1": "1 44333U 19034A   25356.02923053 -.00000093  00000+0  00000+0 0  9990",
        "tle_line2": "2 44333   0.0187  60.0030 0001100  87.6404 212.8681  1.00271543 23854"
      },
      "geometry": {
        "type": "Point",
        "coordinates": [
          163.76386904760622,
          0.02769057214502936
        ]
      }
    },
    {
      "type": "Feature",
      "properties": {
        "norad_id": 44476,
        "name": "INTELSAT 39 (IS-39)",
        "group": "intelsat",
        "lat": -0.005662950815540038,
        "lon": -33.43581601196738,
        "alt_km": 35788.95609745539,
        "timestamp": "2025-12-22T11:33:20.097268+00:00",
        "meta_object_name": "INTELSAT 39 (IS-39)",
        "meta_object_id": "2019-049B",
        "meta_epoch": "2025-12-21T20:34:53.577120",
        "meta_mean_motion": 1.00273614,
        "meta_eccentricity": 8.24e-05,
        "meta_inclination": 0.0088,
        "meta_ra_of_asc_node": 313.2176,
        "meta_arg_of_pericenter": 184.0744,
        "meta_mean_anomaly": 324.0513,
        "meta_ephemeris_type": 0,
        "meta_classification_type": "U",
        "meta_norad_cat_id": 44476,
        "meta_element_set_no": 999,
        "meta_rev_at_epoch": 2335,
        "meta_bstar": 0,
        "meta_mean_motion_dot": 5.5e-07,
        "meta_mean_motion_ddot": 0,
        "tle_line1": "1 44476U 19049B   25355.85756455  .00000055  00000+0  00000+0 0  9991",
        "tle_line2": "2 44476   0.0088 313.2176 0000824 184.0744 324.0513  1.00273614 23353"
      },
      "geometry": {
        "type": "Point",
        "coordinates": [
          -33.43581601196738,
          -0.005662950815540038
        ]
      }
    },
    {
      "type": "Feature",
      "properties": {
        "norad_id": 46114,
        "name": "GALAXY 30 (G-30)",
        "group": "intelsat",
        "lat": 0.031308597251012156,
        "lon": 139.59985326948183,
        "alt_km": 35791.62149726973,
        "timestamp": "2025-12-22T11:33:20.097279+00:00",
        "meta_object_name": "GALAXY 30 (G-30)",
        "meta_object_id": "2020-056C",
        "meta_epoch": "2025-12-22T02:17:55.557888",
        "meta_mean_motion": 1.00270018,
        "meta_eccentricity": 0.0001987,
        "meta_inclination": 0.0184,
        "meta_ra_of_asc_node": 4.1133,
        "meta_arg_of_pericenter": 262.4683,
        "meta_mean_anomaly": 93.8138,
        "meta_ephemeris_type": 0,
        "meta_classification_type": "U",
        "meta_norad_cat_id": 46114,
        "meta_element_set_no": 999,
        "meta_rev_at_epoch": 1951,
        "meta_bstar": 0,
        "meta_mean_motion_dot": 5.9e-07,
        "meta_mean_motion_ddot": 0,
        "tle_line1": "1 46114U 20056C   25356.09578192  .00000059  00000+0  00000+0 0  9993",
        "tle_line2": "2 46114   0.0184   4.1133 0001987 262.4683  93.8138  1.00270018 19516"
      },
      "geometry": {
        "type": "Point",
        "coordinates": [
          139.59985326948183,
          0.031308597251012156
        ]
      }
    },
    {
      "type": "Feature",
      "properties": {
        "norad_id": 54026,
        "name": "GALAXY 33 (G-33)",
        "group": "intelsat",
        "lat": 0.010611665703695676,
        "lon": 131.60072367035474,
        "alt_km": 35790.624452812306,
        "timestamp": "2025-12-22T11:33:20.097290+00:00",
        "meta_object_name": "GALAXY 33 (G-33)",
        "meta_object_id": "2022-128A",
        "meta_epoch": "2025-12-22T02:41:31.919136",
        "meta_mean_motion": 1.00271378,
        "meta_eccentricity": 0.0001588,
        "meta_inclination": 0.0192,
        "meta_ra_of_asc_node": 304.2045,
        "meta_arg_of_pericenter": 318.8341,
        "meta_mean_anomaly": 95.2689,
        "meta_ephemeris_type": 0,
        "meta_classification_type": "U",
        "meta_norad_cat_id": 54026,
        "meta_element_set_no": 999,
        "meta_rev_at_epoch": 1196,
        "meta_bstar": 0,
        "meta_mean_motion_dot": 1.01e-06,
        "meta_mean_motion_ddot": 0,
        "tle_line1": "1 54026U 22128A   25356.11217499  .00000101  00000+0  00000+0 0  9997",
        "tle_line2": "2 54026   0.0192 304.2045 0001588 318.8341  95.2689  1.00271378 11964"
      },
      "geometry": {
        "type": "Point",
        "coordinates": [
          131.60072367035474,
          0.010611665703695676
        ]
      }
    },
    {
      "type": "Feature",
      "properties": {
        "norad_id": 54027,
        "name": "GALAXY 34 (G-34)",
        "group": "intelsat",
        "lat": 0.02471137624136813,
        "lon": 135.64256444659614,
        "alt_km": 35791.65573354704,
        "timestamp": "2025-12-22T11:33:20.097318+00:00",
        "meta_object_name": "GALAXY 34 (G-34)",
        "meta_object_id": "2022-128B",
        "meta_epoch": "2025-12-22T03:23:26.660256",
        "meta_mean_motion": 1.0026922,
        "meta_eccentricity": 0.0001858,
        "meta_inclination": 0.0241,
        "meta_ra_of_asc_node": 337.9019,
        "meta_arg_of_pericenter": 285.9867,
        "meta_mean_anomaly": 108.9733,
        "meta_ephemeris_type": 0,
        "meta_classification_type": "U",
        "meta_norad_cat_id": 54027,
        "meta_element_set_no": 999,
        "meta_rev_at_epoch": 1213,
        "meta_bstar": 0,
        "meta_mean_motion_dot": 0,
        "meta_mean_motion_ddot": 0,
        "tle_line1": "1 54027U 22128B   25356.14128079  .00000000  00000+0  00000+0 0  9994",
        "tle_line2": "2 54027   0.0241 337.9019 0001858 285.9867 108.9733  1.00269220 12136"
      },
      "geometry": {
        "type": "Point",
        "coordinates": [
          135.64256444659614,
          0.02471137624136813
        ]
      }
    },
    {
      "type": "Feature",
      "properties": {
        "norad_id": 54243,
        "name": "GALAXY 31 (G-31)",
        "group": "intelsat",
        "lat": -0.0007326821914877178,
        "lon": 143.59792969014364,
        "alt_km": 35790.76455616984,
        "timestamp": "2025-12-22T11:33:20.097331+00:00",
        "meta_object_name": "GALAXY 31 (G-31)",
        "meta_object_id": "2022-153A",
        "meta_epoch": "2025-12-22T04:29:32.127360",
        "meta_mean_motion": 1.00271056,
        "meta_eccentricity": 0.0001416,
        "meta_inclination": 0.0308,
        "meta_ra_of_asc_node": 249.2071,
        "meta_arg_of_pericenter": 32.967,
        "meta_mean_anomaly": 115.2028,
        "meta_ephemeris_type": 0,
        "meta_classification_type": "U",
        "meta_norad_cat_id": 54243,
        "meta_element_set_no": 999,
        "meta_rev_at_epoch": 535,
        "meta_bstar": 0,
        "meta_mean_motion_dot": 3.5e-07,
        "meta_mean_motion_ddot": 0,
        "tle_line1": "1 54243U 22153A   25356.18717740  .00000035  00000+0  00000+0 0  9993",
        "tle_line2": "2 54243   0.0308 249.2071 0001416  32.9670 115.2028  1.00271056  5359"
      },
      "geometry": {
        "type": "Point",
        "coordinates": [
          143.59792969014364,
          -0.0007326821914877178
        ]
      }
    },
    {
      "type": "Feature",
      "properties": {
        "norad_id": 54244,
        "name": "GALAXY 32 (G-32)",
        "group": "intelsat",
        "lat": 0.0024979664102472102,
        "lon": 173.59587701569714,
        "alt_km": 35793.451826485034,
        "timestamp": "2025-12-22T11:33:20.097343+00:00",
        "meta_object_name": "GALAXY 32 (G-32)",
        "meta_object_id": "2022-153B",
        "meta_epoch": "2025-12-22T02:27:39.626208",
        "meta_mean_motion": 1.00270271,
        "meta_eccentricity": 0.0001979,
        "meta_inclination": 0.0106,
        "meta_ra_of_asc_node": 352.1594,
        "meta_arg_of_pericenter": 327.8502,
        "meta_mean_anomaly": 76.8163,
        "meta_ephemeris_type": 0,
        "meta_classification_type": "U",
        "meta_norad_cat_id": 54244,
        "meta_element_set_no": 999,
        "meta_rev_at_epoch": 1136,
        "meta_bstar": 0,
        "meta_mean_motion_dot": -1.52e-06,
        "meta_mean_motion_ddot": 0,
        "tle_line1": "1 54244U 22153B   25356.10254197 -.00000152  00000+0  00000+0 0  9999",
        "tle_line2": "2 54244   0.0106 352.1594 0001979 327.8502  76.8163  1.00270271 11362"
      },
      "geometry": {
        "type": "Point",
        "coordinates": [
          173.59587701569714,
          0.0024979664102472102
        ]
      }
    }
  ]
}